{"fetched_at":"2026-03-30T06:02:59Z","count":15439,"tles":[{"name":"TRANSPORTER-12 OBJECT CN","line1":"1 62693U 25009CN  26084.50707362  .00201832  00000+0  17780-2 0  9992","line2":"2 62693  97.4049 175.2040 0003971 226.8950 133.1979 15.68104425124277","category":"Other"}]}