{
  "norad_id": 62693,
  "name": "TRANSPORTER-12 OBJECT CN",
  "history": [
    {
      "epoch": "2026-03-25T12:10:11.160768",
      "apogee_km": 367.00284533525337,
      "perigee_km": 361.6475772992917,
      "latitude_deg": -84.41299957911009,
      "longitude_deg": -150.02093247999437,
      "semi_major_axis_km": 6742.462211317272,
      "eccentricity": 0.00039713,
      "inclination_deg": 97.4049,
      "raan_deg": 175.204,
      "arg_perigee_deg": 226.895,
      "mean_anomaly_deg": 133.1979,
      "mean_motion_rev_day": 15.68104425
    }
  ]
}